EUTELSAT 8 WEST B       
1 40875U 15039B   25276.21031970 -.00000065  00000+0  00000+0 0  9997
2 40875   0.0688   9.0542 0003745 185.7792 245.0661  1.00271402 37085
EUTELSAT 9B             
1 41310U 16005A   25276.21369971  .00000062  00000+0  00000+0 0  9997
2 41310   0.0503  55.1531 0003078 165.6625 237.3090  1.00270312 35545
EUTELSAT 65 WEST A      
1 41382U 16014A   25276.26642122 -.00000276  00000+0  00000+0 0  9991
2 41382   0.0638  28.5569 0002224 162.5558 211.8513  1.00270917 34953
EUTELSAT 117 WEST B     
1 41589U 16038B   25276.27842898 -.00000011  00000+0  00000+0 0  9996
2 41589   0.0234  40.1613 0000264 221.8330  93.4695  1.00271839 34086
EUTELSAT 172B           
1 42741U 17029B   25276.17461288 -.00000005  00000+0  00000+0 0  9990
2 42741   0.0165 178.5069 0000233 278.0337 150.4704  1.00269940 31158
EUTELSAT 7C             
1 44334U 19034B   25276.21326638  .00000049  00000+0  00000+0 0  9999
2 44334   0.0639 181.6647 0003331 351.4678 282.8312  1.00271211  4257
EUTELSAT 5 WEST B       
1 44624U 19067A   25276.21092637 -.00000042  00000+0  00000+0 0  9990
2 44624   0.0653 359.1235 0003184 193.6194 250.3763  1.00272020 21860
EUTELSAT KONNECT        
1 45027U 20005B   25276.21326638  .00000050  00000+0  00000+0 0  9991
2 45027   0.0654  95.8662 0001458  88.4162 271.8674  1.00269672 21740
